ONEWEB-0588             
1 55153U 23004P   25163.13353870  .00000077  00000+0  16301-3 0  9992
2 55153  87.9137  49.0424 0002189  71.3994 288.7376 13.18687785120921
ONEWEB-0598             
1 55154U 23004Q   25162.81573163  .00000123  00000+0  31150-3 0  9997
2 55154  87.8838  94.9093 0002557  87.6780 272.4641 13.11412850117352
ONEWEB-0599             
1 55155U 23004R   25163.21575777  .00000126  00000+0  29167-3 0  9994
2 55155  87.9078  79.5297 0001996  83.5880 276.5479 13.17648273118763
ONEWEB-0614             
1 55156U 23004S   25162.81064826  .00000348  00000+0  94618-3 0  9997
2 55156  87.8840  94.9192 0002009  68.8551 291.2791 13.11414573117298
ONEWEB-0616             
1 55157U 23004T   25162.80234461  .00000107  00000+0  24299-3 0  9992
2 55157  87.9071  79.6038 0001647 110.9536 249.1772 13.17650055118929
ONEWEB-0617             
1 55158U 23004U   25162.79878084  .00000473  00000+0  12996-2 0  9992
2 55158  87.8836  94.9025 0002224  70.6351 289.5018 13.11415885117310
ONEWEB-0618             
1 55159U 23004V   25163.58334491  .00020688  00000+0  45650-2 0  9993
2 55159  86.9058 324.5940 0013081 195.3580 350.1223 14.57188471126892
ONEWEB-0619             
1 55160U 23004W   25163.21407059  .00000107  00000+0  24291-3 0  9999
2 55160  87.9071  79.4995 0001494  68.7601 291.3690 13.17650564118873
